NORAD_CAT_ID,OBJECT_NAME,OBJECT_TYPE,EPOCH,MEAN_MOTION,ECCENTRICITY,INCLINATION,RA_OF_ASC_NODE,ARG_OF_PERICENTER,MEAN_ANOMALY,BSTAR,MEAN_MOTION_DOT,MEAN_MOTION_DDOT,TLE_LINE0,TLE_LINE1,TLE_LINE2,SEMIMAJOR_AXIS,PERIOD,APOGEE,PERIGEE,DECAYED
56448.0,STARLINK-5990,PAYLOAD,2024-07-03 21:27:30,14.98332952,0.0003076,69.9991,252.1239,268.1933,91.8873,-1.8463e-07,-9.5e-07,0.0,0 STARLINK-5990,1 56448U 23064A   24185.89410529 -.00000095  00000-0 -18463-6 0  9994,2 56448  69.9991 252.1239 0003076 268.1933  91.8873 14.98332952 63308,6950.184,96.107,574.187,569.911,0.0
56448.0,STARLINK-5990,PAYLOAD,2024-07-04 13:28:51,14.98332825,0.000308,69.999,250.4403,268.6919,91.3887,6.1079e-05,6.36e-06,0.0,0 STARLINK-5990,1 56448U 23064A   24186.56170304  .00000636  00000-0  61079-4 0  9991,2 56448  69.9990 250.4403 0003080 268.6919  91.3887 14.98332825 63764,6950.184,96.107,574.19,569.908,0.0
56448.0,STARLINK-5990,PAYLOAD,2024-07-04 21:29:31,14.98332711,0.0003087,69.9991,249.5986,269.0314,91.0491,5.975e-05,6.2e-06,0.0,0 STARLINK-5990,1 56448U 23064A   24186.89550274  .00000620  00000-0  59750-4 0  9991,2 56448  69.9991 249.5986 0003087 269.0314  91.0491 14.98332711 63459,6950.185,96.107,574.195,569.904,0.0
56448.0,STARLINK-5990,PAYLOAD,2024-07-05 13:30:52,14.98332663,0.0003096,69.999,247.9156,269.2664,90.8141,5.6723e-05,5.84e-06,0.0,0 STARLINK-5990,1 56448U 23064A   24187.56310240  .00000584  00000-0  56723-4 0  9999,2 56448  69.9990 247.9156 0003096 269.2664  90.8141 14.98332663 63555,6950.185,96.107,574.201,569.898,0.0
56448.0,STARLINK-5990,PAYLOAD,2024-07-05 21:31:32,14.98331305,0.000309,69.999,247.074,269.3366,90.7438,3.9248e-05,3.75e-06,0.0,0 STARLINK-5990,1 56448U 23064A   24187.89690336  .00000375  00000-0  39248-4 0  9993,2 56448  69.9990 247.0740 0003090 269.3366  90.7438 14.98331305 63605,6950.189,96.107,574.201,569.906,0.0
56448.0,STARLINK-5990,PAYLOAD,2024-07-06 13:32:53,14.98330791,0.0003135,69.9988,245.3907,270.1407,89.9393,1.669e-06,-7.3e-07,0.0,0 STARLINK-5990,1 56448U 23064A   24188.56450353 -.00000073  00000-0  16690-5 0  9994,2 56448  69.9988 245.3907 0003135 270.1407  89.9393 14.98330791 63703,6950.19,96.107,574.234,569.877,0.0
56448.0,STARLINK-5990,PAYLOAD,2024-07-06 21:33:33,14.98330177,0.000318,69.9986,244.5476,271.0953,88.9842,-7.6632e-06,-1.84e-06,0.0,0 STARLINK-5990,1 56448U 23064A   24188.89830397 -.00000184  00000-0 -76632-5 0  9996,2 56448  69.9986 244.5476 0003180 271.0953  88.9842 14.98330177 63750,6950.192,96.107,574.268,569.847,0.0
56448.0,STARLINK-5990,PAYLOAD,2024-07-07 11:58:45,14.98330481,0.0003241,69.9985,243.0329,271.1795,88.8993,1.916e-05,1.36e-06,0.0,0 STARLINK-5990,1 56448U 23064A   24189.49914334  .00000136  00000-0  19160-4 0  9994,2 56448  69.9985 243.0329 0003241 271.1795  88.8993 14.98330481 63847,6950.191,96.107,574.309,569.804,0.0
56448.0,STARLINK-5990,PAYLOAD,2024-07-08 12:00:46,14.98334964,0.000325,69.9985,240.5081,270.7661,89.3126,7.9146e-05,8.52e-06,0.0,0 STARLINK-5990,1 56448U 23064A   24190.50053791  .00000852  00000-0  79146-4 0  9994,2 56448  69.9985 240.5081 0003250 270.7661  89.3126 14.98334964 64352,6950.178,96.107,574.301,569.784,0.0
56448.0,STARLINK-5990,PAYLOAD,2024-07-08 13:36:54,14.98335602,0.0003247,69.9985,240.3397,270.7648,89.3139,8.4939e-05,9.21e-06,0.0,0 STARLINK-5990,1 56448U 23064A   24190.56729718  .00000921  00000-0  84939-4 0  9992,2 56448  69.9985 240.3397 0003247 270.7648  89.3139 14.98335602 64007,6950.176,96.107,574.297,569.784,0.0
56448.0,STARLINK-5990,PAYLOAD,2024-07-08 20:01:26,14.98332265,0.0003211,69.9986,239.6664,271.0901,88.989,6.0873e-05,6.33e-06,0.0,0 STARLINK-5990,1 56448U 23064A   24190.83433948  .00000633  00000-0  60873-4 0  9990,2 56448  69.9986 239.6664 0003211 271.0901  88.9890 14.98332265 64048,6950.186,96.107,574.283,569.819,0.0
56448.0,STARLINK-5990,PAYLOAD,2024-07-09 12:02:47,14.98331922,0.000321,69.9986,237.9833,270.5823,89.4969,6.0649e-05,6.31e-06,0.0,0 STARLINK-5990,1 56448U 23064A   24191.50193864  .00000631  00000-0  60649-4 0  9994,2 56448  69.9986 237.9833 0003210 270.5823  89.4969 14.98331922 64506,6950.187,96.107,574.283,569.821,0.0
56448.0,STARLINK-5990,PAYLOAD,2024-07-09 13:38:55,14.98332638,0.0003209,69.9986,237.815,270.4741,89.6051,6.6753e-05,7.04e-06,0.0,0 STARLINK-5990,1 56448U 23064A   24191.56869792  .00000704  00000-0  66753-4 0  9993,2 56448  69.9986 237.8150 0003209 270.4741  89.6051 14.98332638 64153,6950.185,96.107,574.28,569.819,0.0
56448.0,STARLINK-5990,PAYLOAD,2024-07-10 10:28:40,14.98327685,0.0003209,69.9988,235.6272,268.5975,91.4817,-5.2107e-05,-7.15e-06,0.0,0 STARLINK-5990,1 56448U 23064A   24192.43658332 -.00000715  00000-0 -52107-4 0  9998,2 56448  69.9988 235.6272 0003209 268.5975  91.4817 14.98327685 64644,6950.2,96.107,574.295,569.835,0.0
56448.0,STARLINK-5990,PAYLOAD,2024-07-11 12:06:49,14.98330285,0.0003273,69.9989,232.9341,269.0095,91.0689,8.7559e-06,1.1e-07,0.0,0 STARLINK-5990,1 56448U 23064A   24193.50474001  .00000011  00000-0  87559-5 0  9993,2 56448  69.9989 232.9341 0003273 269.0095  91.0689 14.98330285 64443,6950.192,96.107,574.332,569.782,0.0
56448.0,STARLINK-5990,PAYLOAD,2024-07-11 20:07:29,14.98331226,0.0003399,69.9986,232.0926,271.5209,88.5561,2.8382e-05,2.46e-06,0.0,0 STARLINK-5990,1 56448U 23064A   24193.83853870  .00000246  00000-0  28382-4 0  9992,2 56448  69.9986 232.0926 0003399 271.5209  88.5561 14.98331226 64855,6950.189,96.107,574.416,569.692,0.0
56448.0,STARLINK-5990,PAYLOAD,2024-07-12 12:08:50,14.98330727,0.0003452,69.9984,230.4086,270.0039,90.0724,8.5756e-05,9.3e-06,0.0,0 STARLINK-5990,1 56448U 23064A   24194.50613822  .00000930  00000-0  85756-4 0  9996,2 56448  69.9984 230.4086 0003452 270.0039  90.0724 14.98330727 64592,6950.191,96.107,574.455,569.656,0.0
56448.0,STARLINK-5990,PAYLOAD,2024-07-12 20:09:30,14.98329754,0.000341,69.9986,229.5666,269.8934,90.1834,5.6036e-05,5.76e-06,0.0,0 STARLINK-5990,1 56448U 23064A   24194.83993955  .00000576  00000-0  56036-4 0  9995,2 56448  69.9986 229.5666 0003410 269.8934  90.1834 14.98329754 65009,6950.194,96.107,574.429,569.689,0.0
56448.0,STARLINK-5990,PAYLOAD,2024-07-13 12:10:51,14.98332211,0.0003427,69.9985,227.8832,269.3321,90.7446,4.1483e-05,4.02e-06,0.0,0 STARLINK-5990,1 56448U 23064A   24195.50753817  .00000402  00000-0  41483-4 0  9999,2 56448  69.9985 227.8832 0003427 269.3321  90.7446 14.98332211 64744,6950.186,96.107,574.433,569.669,0.0
56448.0,STARLINK-5990,PAYLOAD,2024-07-14 04:12:11,14.98332549,0.0003433,69.9984,226.1999,269.1619,90.9147,5.7247e-05,5.9e-06,0.0,0 STARLINK-5990,1 56448U 23064A   24196.17513685  .00000590  00000-0  57247-4 0  9993,2 56448  69.9984 226.1999 0003433 269.1619  90.9147 14.98332549 65200,6950.185,96.107,574.436,569.664,0.0
56448.0,STARLINK-5990,PAYLOAD,2024-07-14 12:12:51,14.98334781,0.000344,69.9984,225.3584,269.1739,90.9026,5.4615e-05,5.59e-06,0.0,0 STARLINK-5990,1 56448U 23064A   24196.50893487  .00000559  00000-0  54615-4 0  9992,2 56448  69.9984 225.3584 0003440 269.1739  90.9026 14.98334781 64892,6950.178,96.107,574.434,569.652,0.0
56448.0,STARLINK-5990,PAYLOAD,2024-07-14 18:37:23,14.98340602,0.0003458,69.9983,224.6852,269.2579,90.8184,0.00010696,1.184e-05,0.0,0 STARLINK-5990,1 56448U 23064A   24196.77596879  .00001184  00000-0  10696-3 0  9991,2 56448  69.9983 224.6852 0003458 269.2579  90.8184 14.98340602 65291,6950.16,96.106,574.428,569.622,0.0
56448.0,STARLINK-5990,PAYLOAD,2024-07-15 12:14:52,14.98340537,0.0003425,69.9984,222.8342,267.4458,92.6309,0.00011623,1.294e-05,0.0,0 STARLINK-5990,1 56448U 23064A   24197.51032533  .00001294  00000-0  11623-3 0  9999,2 56448  69.9984 222.8342 0003425 267.4458  92.6309 14.98340537 65045,6950.16,96.106,574.406,569.645,0.0
56448.0,STARLINK-5990,PAYLOAD,2024-07-15 18:39:24,14.98333914,0.0003387,69.9985,222.1609,267.3431,92.734,3.6435e-05,3.42e-06,0.0,0 STARLINK-5990,1 56448U 23064A   24197.77737033  .00000342  00000-0  36435-4 0  9996,2 56448  69.9985 222.1609 0003387 267.3431  92.7340 14.98333914 65443,6950.181,96.107,574.4,569.692,0.0
56448.0,STARLINK-5990,PAYLOAD,2024-07-16 10:40:45,14.9832713,0.0003297,69.9986,220.4779,267.0298,93.0483,-4.1695e-05,-5.9e-06,0.0,0 STARLINK-5990,1 56448U 23064A   24198.44497574 -.00000590  00000-0 -41695-4 0  9995,2 56448  69.9986 220.4779 0003297 267.0298  93.0483 14.98327130 65547,6950.202,96.107,574.358,569.775,0.0
56448.0,STARLINK-5990,PAYLOAD,2024-07-17 10:42:46,14.98331308,0.0003254,69.9988,217.9529,265.7448,94.3339,-5.6336e-05,-7.65e-06,0.0,0 STARLINK-5990,1 56448U 23064A   24199.44637239 -.00000765  00000-0 -56336-4 0  9992,2 56448  69.9988 217.9529 0003254 265.7448  94.3339 14.98331308 65690,6950.189,96.107,574.315,569.792,0.0
56448.0,STARLINK-5990,PAYLOAD,2024-07-18 10:44:48,14.98323313,0.0003411,69.9983,215.4275,267.0701,93.0068,4.3545e-05,4.26e-06,0.0,0 STARLINK-5990,1 56448U 23064A   24200.44777807  .00000426  00000-0  43545-4 0  9991,2 56448  69.9983 215.4275 0003411 267.0701  93.0068 14.98323313 65847,6950.214,96.107,574.449,569.708,0.0
56448.0,STARLINK-5990,PAYLOAD,2024-07-18 18:45:28,14.983262,0.0003444,69.9982,214.5854,267.0901,92.9864,5.8429e-05,6.04e-06,0.0,0 STARLINK-5990,1 56448U 23064A   24200.78157715  .00000604  00000-0  58429-4 0  9993,2 56448  69.9982 214.5854 0003444 267.0901  92.9864 14.98326200 65533,6950.205,96.107,574.463,569.676,0.0
56448.0,STARLINK-5990,PAYLOAD,2024-07-19 10:46:48,14.983325,0.000349,69.9983,212.9021,267.3529,92.723,8.026e-05,8.65e-06,0.0,0 STARLINK-5990,1 56448U 23064A   24201.44917335  .00000865  00000-0  80260-4 0  9996,2 56448  69.9983 212.9021 0003490 267.3529  92.7230 14.98332500 65997,6950.185,96.107,574.476,569.625,0.0
56448.0,STARLINK-5990,PAYLOAD,2024-07-20 10:48:49,14.98333755,0.0003475,69.9985,210.3772,267.3322,92.7439,0.00013122,1.473e-05,0.0,0 STARLINK-5990,1 56448U 23064A   24202.45057067  .00001473  00000-0  13122-3 0  9993,2 56448  69.9985 210.3772 0003475 267.3322  92.7439 14.98333755 66140,6950.181,96.107,574.461,569.631,0.0
